0 H-2A R/B
1 33500U 09002J   13281.98300453  .00001631  00000-0  20112-3 0  5490
2 33500 098.2443 081.0697 0053827 171.4437 188.7706 14.83379270254615
0 H-2A R/B
1 33500U 09002J   13283.06228367  .00001569  00000-0  19372-3 0  5502
2 33500 098.2442 082.1834 0053890 167.9955 192.2556 14.83382609254774
0 H-2A R/B
1 33500U 09002J   13284.07410457  .00001836  00000-0  22538-3 0  5513
2 33500 098.2443 083.2276 0053950 164.7639 195.5213 14.83384785254928
0 H-2A R/B
1 33500U 09002J   13286.09773911  .00002347  00000-0  28613-3 0  5534
2 33500 098.2438 085.3154 0053926 158.2240 202.1282 14.83389205255226
0 H-2A R/B
1 33500U 09002J   13287.10955385  .00002476  00000-0  30137-3 0  5542
2 33500 098.2438 086.3595 0054001 154.9674 205.4175 14.83392979255370
0 H-2A R/B
1 33500U 09002J   13288.12136727  .00002437  00000-0  29665-3 0  5558
2 33500 098.2449 087.4042 0054133 151.8224 208.5937 14.83403647255526
0 H-2A R/B
1 33500U 09002J   13289.47044087  .00002051  00000-0  25081-3 0  5565
2 33500 098.2442 088.7959 0054068 147.4568 212.9997 14.83408615255726
0 H-2A R/B
1 33500U 09002J   13290.48224204  .00002413  00000-0  29366-3 0  5572
2 33500 098.2445 089.8402 0054151 144.2327 216.2532 14.83411457255871
0 H-2A R/B
1 33500U 09002J   13291.49404039  .00002658  00000-0  32277-3 0  5587
2 33500 098.2447 090.8844 0054164 141.0151 219.4986 14.83413810256020
0 H-2A R/B
1 33500U 09002J   13292.50583682  .00002774  00000-0  33647-3 0  5594
2 33500 098.2452 091.9288 0054228 137.7752 222.7656 14.83418350256171
0 H-2A R/B
1 33500U 09002J   13293.65253576  .00002537  00000-0  30827-3 0  5603
2 33500 098.2454 093.1124 0054289 134.1401 226.4296 14.83425481256348
0 H-2A R/B
1 33500U 09002J   13294.79922962  .00002346  00000-0  28557-3 0  5617
2 33500 098.2456 094.2960 0054230 130.5063 230.0893 14.83432306256517
0 H-2A R/B
1 33500U 09002J   13295.81101322  .00002447  00000-0  29758-3 0  5627
2 33500 098.2455 095.3402 0054164 127.2921 233.3247 14.83434981256667
